{
"type": "FeatureCollection",
"name": "sample_buildings",
"crs": { "type": "name", "properties": { "name": "urn:ogc:def:crs:EPSG::3857" } },
"features": [
{ "type": "Feature", "properties": { "source": "google", "id": "47M95262+7WV8", "region": "CHL", "height": 6.2205700874328613, "var": 1.5758686065673828 }, "geometry": { "type": "Polygon", "coordinates": [ [ [ -8126062.034293888136744, -4416733.233878972940147 ], [ -8126071.728998011909425, -4416735.065317764878273 ], [ -8126074.516227277927101, -4416720.183440017513931 ], [ -8126061.322192711755633, -4416717.69094052631408 ], [ -8126059.302479608915746, -4416728.474741917103529 ], [ -8126062.801826235838234, -4416729.135809770785272 ], [ -8126062.034293888136744, -4416733.233878972940147 ] ] ] } },
{ "type": "Feature", "properties": { "source": "google", "id": "47M95262+7GW7", "region": "CHL", "height": 7.407773494720459, "var": 4.0408515930175781 }, "geometry": { "type": "Polygon", "coordinates": [ [ [ -8126169.218143625184894, -4416721.735682261176407 ], [ -8126173.06979800760746, -4416733.683825221844018 ], [ -8126182.031017014756799, -4416730.762857717461884 ], [ -8126178.168230685405433, -4416718.828627389855683 ], [ -8126169.218143625184894, -4416721.735682261176407 ] ] ] } },
{ "type": "Feature", "properties": { "source": "google", "id": "47M85X6X+7RW6", "region": "CHL", "height": 4.7952671051025391, "var": 1.4694662094116211 }, "geometry": { "type": "Polygon", "coordinates": [ [ [ -8126367.071788845583797, -4416724.835236728191376 ], [ -8126369.440745778381824, -4416729.97530666552484 ], [ -8126374.410518171265721, -4416727.665017062798142 ], [ -8126372.041559279896319, -4416722.52494927123189 ], [ -8126367.071788845583797, -4416724.835236728191376 ] ] ] } },
{ "type": "Feature", "properties": { "source": "google", "id": "47M95262+76XQ", "region": "CHL", "height": 8.6507148742675781, "var": 5.0331230163574219 }, "geometry": { "type": "Polygon", "coordinates": [ [ [ -8126250.622122309170663, -4416723.676757042296231 ], [ -8126252.06339587084949, -4416728.276245472952724 ], [ -8126257.416646467521787, -4416726.584261119365692 ], [ -8126255.975370766595006, -4416721.984774073585868 ], [ -8126250.622122309170663, -4416723.676757042296231 ] ] ] } },
{ "type": "Feature", "properties": { "source": "google", "id": "47M95262+8554", "region": "CHL", "height": 10.019937515258789, "var": 6.4117660522460938 }, "geometry": { "type": "Polygon", "coordinates": [ [ [ -8126268.087664249353111, -4416729.513506289571524 ], [ -8126270.575908999890089, -4416728.635090793482959 ], [ -8126268.971213470213115, -4416724.050220262259245 ], [ -8126272.259525103494525, -4416722.889359670691192 ], [ -8126270.872599988244474, -4416718.926696149632335 ], [ -8126265.096046520397067, -4416720.96597002632916 ], [ -8126268.087664249353111, -4416729.513506289571524 ] ] ] } },
{ "type": "Feature", "properties": { "source": "google", "id": "47M95262+7QVR", "region": "CHL", "height": 11.977531433105469, "var": 7.820648193359375 }, "geometry": { "type": "Polygon", "coordinates": [ [ [ -8126101.560987465083599, -4416729.151055325753987 ], [ -8126117.908004462718964, -4416731.058506104163826 ], [ -8126119.13101767282933, -4416720.486414821818471 ], [ -8126108.28699528798461, -4416719.221085175871849 ], [ -8126108.696896907873452, -4416715.677801662124693 ], [ -8126103.193919871933758, -4416715.0356853781268 ], [ -8126101.560987465083599, -4416729.151055325753987 ] ] ] } },
{ "type": "Feature", "properties": { "source": "google", "id": "47M95262+8C6C", "region": "CHL", "height": 7.0575799942016602, "var": 1.6511325836181641 }, "geometry": { "type": "Polygon", "coordinates": [ [ [ -8126201.233373820781708, -4416715.022535579279065 ], [ -8126203.569343794137239, -4416726.896530244499445 ], [ -8126217.074698722921312, -4416724.216624677181244 ], [ -8126216.532673023641109, -4416721.461467531509697 ], [ -8126220.660342368297279, -4416720.642399072647095 ], [ -8126218.866379892453551, -4416711.523568209260702 ], [ -8126201.233373820781708, -4416715.022535579279065 ] ] ] } },
{ "type": "Feature", "properties": { "source": "google", "id": "47M95262+828M", "region": "CHL", "height": 9.122563362121582, "var": 4.9722213745117188 }, "geometry": { "type": "Polygon", "coordinates": [ [ [ -8126308.386391277424991, -4416719.704687334597111 ], [ -8126311.621341022662818, -4416724.32104370649904 ], [ -8126321.124286070466042, -4416717.604151398874819 ], [ -8126316.412989374250174, -4416710.88102214038372 ], [ -8126311.990030431188643, -4416714.007266465574503 ], [ -8126313.466374575160444, -4416716.114046250469983 ], [ -8126308.386391277424991, -4416719.704687334597111 ] ] ] } },
{ "type": "Feature", "properties": { "source": "google", "id": "47M95262+84F3", "region": "CHL", "height": 8.9505081176757812, "var": 1.8168716430664062 }, "geometry": { "type": "Polygon", "coordinates": [ [ [ -8126286.235554125159979, -4416714.116938259452581 ], [ -8126289.042247014120221, -4416721.392215329222381 ], [ -8126293.941702480427921, -4416719.485723120160401 ], [ -8126291.135006642900407, -4416712.210448537953198 ], [ -8126286.235554125159979, -4416714.116938259452581 ] ] ] } },
{ "type": "Feature", "properties": { "source": "google", "id": "47M85X6X+8VHQ", "region": "CHL", "height": 4.728785514831543, "var": 1.5027942657470703 }, "geometry": { "type": "Polygon", "coordinates": [ [ [ -8126342.069193947128952, -4416715.481189462356269 ], [ -8126345.468294221907854, -4416722.11393429338932 ], [ -8126360.607940824702382, -4416714.28813408035785 ], [ -8126357.208833303302526, -4416707.655398538336158 ], [ -8126342.069193947128952, -4416715.481189462356269 ] ] ] } },
{ "type": "Feature", "properties": { "source": "google", "id": "47M95262+86HW", "region": "CHL", "height": 8.3467493057250977, "var": 6.9049568176269531 }, "geometry": { "type": "Polygon", "coordinates": [ [ [ -8126247.233537128195167, -4416713.902816169895232 ], [ -8126248.802791414782405, -4416719.918253178708255 ], [ -8126261.822397955693305, -4416716.492416716180742 ], [ -8126259.37032765429467, -4416707.092919237911701 ], [ -8126251.42371672950685, -4416709.183903669007123 ], [ -8126252.306523327715695, -4416712.567968925461173 ], [ -8126247.233537128195167, -4416713.902816169895232 ] ] ] } },
{ "type": "Feature", "properties": { "source": "google", "id": "47M85X6X+8PQG", "region": "CHL", "height": 3.996258020401001, "var": 0.75647735595703125 }, "geometry": { "type": "Polygon", "coordinates": [ [ [ -8126397.018552209250629, -4416718.857332953251898 ], [ -8126400.812139940448105, -4416715.362751956097782 ], [ -8126390.971260523423553, -4416704.587422288954258 ], [ -8126387.177673660218716, -4416708.081996311433613 ], [ -8126397.018552209250629, -4416718.857332953251898 ] ] ] } },
{ "type": "Feature", "properties": { "source": "google", "id": "47M95262+8FR6", "region": "CHL", "height": 7.8542709350585938, "var": 1.0321540832519531 }, "geometry": { "type": "Polygon", "coordinates": [ [ [ -8126192.377381074242294, -4416707.198443850502372 ], [ -8126192.930420112796128, -4416711.921746609732509 ], [ -8126202.623993207700551, -4416710.776926926337183 ], [ -8126202.070949885062873, -4416706.053625022992492 ], [ -8126192.377381074242294, -4416707.198443850502372 ] ] ] } },
{ "type": "Feature", "properties": { "source": "google", "id": "47M95262+83RC", "region": "CHL", "height": 8.4727535247802734, "var": 5.6729011535644531 }, "geometry": { "type": "Polygon", "coordinates": [ [ [ -8126302.745002212002873, -4416707.093981215730309 ], [ -8126306.576551370322704, -4416713.842336865141988 ], [ -8126313.891568921506405, -4416709.653111304156482 ], [ -8126310.06001647002995, -4416702.904760802164674 ], [ -8126302.745002212002873, -4416707.093981215730309 ] ] ] } },
{ "type": "Feature", "properties": { "source": "google", "id": "47M95262+87XP", "region": "CHL", "height": 8.1260538101196289, "var": 3.6568145751953125 }, "geometry": { "type": "Polygon", "coordinates": [ [ [ -8126231.919789211824536, -4416704.866075303405523 ], [ -8126233.815367824397981, -4416714.008305952884257 ], [ -8126249.647081867791712, -4416710.69729389064014 ], [ -8126247.751490088179708, -4416701.555068368092179 ], [ -8126231.919789211824536, -4416704.866075303405523 ] ] ] } },
{ "type": "Feature", "properties": { "source": "google", "id": "47M95262+8CRR", "region": "CHL", "height": 6.1341676712036133, "var": 1.3801193237304688 }, "geometry": { "type": "Polygon", "coordinates": [ [ [ -8126204.016616446897388, -4416704.8775569293648 ], [ -8126205.742068554274738, -4416711.693132436834276 ], [ -8126217.90928889811039, -4416708.577440234832466 ], [ -8126216.183836790733039, -4416701.76186672411859 ], [ -8126204.016616446897388, -4416704.8775569293648 ] ] ] } },
{ "type": "Feature", "properties": { "source": "google", "id": "47M85X6X+9W39", "region": "CHL", "height": 5.2311091423034668, "var": 1.5403976440429688 }, "geometry": { "type": "Polygon", "coordinates": [ [ [ -8126335.126226003281772, -4416704.62853763718158 ], [ -8126337.721807735040784, -4416712.007108397781849 ], [ -8126353.781613199971616, -4416706.308807297609746 ], [ -8126351.186021506786346, -4416698.93024427164346 ], [ -8126335.126226003281772, -4416704.62853763718158 ] ] ] } },
{ "type": "Feature", "properties": { "source": "google", "id": "47M85X6X+9P4H", "region": "CHL", "height": 5.3175363540649414, "var": 0.85327053070068359 }, "geometry": { "type": "Polygon", "coordinates": [ [ [ -8126384.153211103752255, -4416698.105561644770205 ], [ -8126403.028159867040813, -4416717.390407505445182 ], [ -8126409.198130051605403, -4416711.299316499382257 ], [ -8126390.323180398903787, -4416692.014492210932076 ], [ -8126384.153211103752255, -4416698.105561644770205 ] ] ] } },
{ "type": "Feature", "properties": { "source": "google", "id": "47M85X6X+9Q4F", "region": "CHL", "height": 5.2682733535766602, "var": 0.45787239074707031 }, "geometry": { "type": "Polygon", "coordinates": [ [ [ -8126377.502415347844362, -4416704.53240308817476 ], [ -8126383.683657053858042, -4416711.300610054284334 ], [ -8126390.971260523423553, -4416704.587422288954258 ], [ -8126384.790017757564783, -4416697.819223767146468 ], [ -8126377.502415347844362, -4416704.53240308817476 ] ] ] } },
{ "type": "Feature", "properties": { "source": "google", "id": "47M95262+964X", "region": "CHL", "height": 6.6162381172180176, "var": 4.0174789428710938 }, "geometry": { "type": "Polygon", "coordinates": [ [ [ -8126252.188912962563336, -4416701.015280735678971 ], [ -8126254.133845071308315, -4416708.470790816470981 ], [ -8126262.363633553497493, -4416706.305291740223765 ], [ -8126260.418695989996195, -4416698.849784471094608 ], [ -8126252.188912962563336, -4416701.015280735678971 ] ] ] } }
]
}
